start=new Date('2022-03-12T00:00:00.000Z').valueOf();
sats=[{"APOAPSIS":"477.919","GP_ID":"198496609","CENTER_NAME":"EARTH","PERIOD":"94.132","TLE_LINE2":"2 50156  53.2174 319.1576 0002028  35.8046 169.7057 15.29760893 15877","BSTAR":"-0.01908700000000","OBJECT_NAME":"STARLINK-3317","FILE":"3355342","MEAN_ANOMALY":"169.7057","OBJECT_ID":"2021-125A","INCLINATION":"53.2174","RA_OF_ASC_NODE":"319.1576","REF_FRAME":"TEME","SITE":"AFWTR","MEAN_MOTION_DOT":"-0.00520770","LAUNCH_DATE":"2021-12-18","SEMIMAJOR_AXIS":"6854.663","PERIAPSIS":"475.138","TLE_LINE1":"1 50156U 21125A   22070.91667824 -.00520770  00000-0 -19087-1 0  9991","MEAN_MOTION":"15.29760893","NORAD_CAT_ID":"50156","ARG_OF_PERICENTER":"35.8046","TIME_SYSTEM":"UTC","COUNTRY_CODE":"US","EPHEMERIS_TYPE":"0","EPOCH":"2022-03-11T22:00:00.999936","DECAY_DATE":null,"REV_AT_EPOCH":"1587","MEAN_MOTION_DDOT":"0.0000000000000","MEAN_ELEMENT_THEORY":"SGP4","RCS_SIZE":"LARGE","OBJECT_TYPE":"PAYLOAD","ECCENTRICITY":"0.00020280","CLASSIFICATION_TYPE":"U","ELEMENT_SET_NO":"999"},{"APOAPSIS":"541.017","GP_ID":"198521460","CENTER_NAME":"EARTH","TLE_LINE2":"2 50157  53.2182 327.8129 0002036  45.7465  23.0041 15.08884816  3603","PERIOD":"95.435","BSTAR":"-0.00406920000000","OBJECT_NAME":"STARLINK-3313","FILE":"3355378","MEAN_ANOMALY":"23.0041","OBJECT_ID":"2021-125B","INCLINATION":"53.2182","REF_FRAME":"TEME","RA_OF_ASC_NODE":"327.8129","SITE":"AFWTR","MEAN_MOTION_DOT":"-0.00064550","LAUNCH_DATE":"2021-12-18","SEMIMAJOR_AXIS":"6917.743","PERIAPSIS":"538.200","MEAN_MOTION":"15.08884816","TLE_LINE1":"1 50157U 21125B   22070.91667824 -.00064550  00000-0 -40692-2 0  9998","NORAD_CAT_ID":"50157","TIME_SYSTEM":"UTC","ARG_OF_PERICENTER":"45.7465","COUNTRY_CODE":"US","EPHEMERIS_TYPE":"0","EPOCH":"2022-03-11T22:00:00.999936","DECAY_DATE":null,"REV_AT_EPOCH":"360","MEAN_MOTION_DDOT":"0.0000000000000","RCS_SIZE":"LARGE","MEAN_ELEMENT_THEORY":"SGP4","OBJECT_TYPE":"PAYLOAD","ECCENTRICITY":"0.00020360","CLASSIFICATION_TYPE":"U","ELEMENT_SET_NO":"999"},{"NORAD_CAT_ID":"50158","COUNTRY_CODE":"US","ARG_OF_PERICENTER":"43.1831","TIME_SYSTEM":"UTC","DECAY_DATE":null,"EPHEMERIS_TYPE":"0","EPOCH":"2022-03-11T22:00:00.999936","MEAN_ELEMENT_THEORY":"SGP4","RCS_SIZE":"LARGE","REV_AT_EPOCH":"360","MEAN_MOTION_DDOT":"0.0000000000000","CLASSIFICATION_TYPE":"U","ELEMENT_SET_NO":"999","OBJECT_TYPE":"PAYLOAD","ECCENTRICITY":"0.00018420","MEAN_ANOMALY":"85.5700","FILE":"3355378","OBJECT_NAME":"STARLINK-3309","OBJECT_ID":"2021-125C","APOAPSIS":"540.867","PERIOD":"95.434","TLE_LINE2":"2 50158  53.2191 327.8117 0001842  43.1831  85.5700 15.08890079  3607","BSTAR":"-0.00405670000000","CENTER_NAME":"EARTH","GP_ID":"198520708","SITE":"AFWTR","RA_OF_ASC_NODE":"327.8117","REF_FRAME":"TEME","INCLINATION":"53.2191","SEMIMAJOR_AXIS":"6917.727","PERIAPSIS":"538.318","LAUNCH_DATE":"2021-12-18","MEAN_MOTION_DOT":"-0.00064363","MEAN_MOTION":"15.08890079","TLE_LINE1":"1 50158U 21125C   22070.91667824 -.00064363  00000-0 -40567-2 0  9992"},{"EPOCH":"2022-03-11T22:00:00.999936","EPHEMERIS_TYPE":"0","DECAY_DATE":null,"COUNTRY_CODE":"US","TIME_SYSTEM":"UTC","ARG_OF_PERICENTER":"51.5301","NORAD_CAT_ID":"50159","ECCENTRICITY":"0.00019220","OBJECT_TYPE":"PAYLOAD","ELEMENT_SET_NO":"999","CLASSIFICATION_TYPE":"U","MEAN_MOTION_DDOT":"0.0000000000000","REV_AT_EPOCH":"360","RCS_SIZE":"LARGE","MEAN_ELEMENT_THEORY":"SGP4","REF_FRAME":"TEME","RA_OF_ASC_NODE":"327.8080","INCLINATION":"53.2195","SITE":"AFWTR","TLE_LINE2":"2 50159  53.2195 327.8080 0001922  51.5301  97.2055 15.08868448  3603","PERIOD":"95.436","BSTAR":"-0.00195890000000","GP_ID":"198520958","CENTER_NAME":"EARTH","APOAPSIS":"540.988","OBJECT_ID":"2021-125D","MEAN_ANOMALY":"97.2055","FILE":"3355378","OBJECT_NAME":"STARLINK-3297","MEAN_MOTION":"15.08868448","TLE_LINE1":"1 50159U 21125D   22070.91667824 -.00031354  00000-0 -19589-2 0  9997","LAUNCH_DATE":"2021-12-18","MEAN_MOTION_DOT":"-0.00031354","PERIAPSIS":"538.329","SEMIMAJOR_AXIS":"6917.793"},{"MEAN_MOTION_DDOT":"0.0000000000000","REV_AT_EPOCH":"360","MEAN_ELEMENT_THEORY":"SGP4","RCS_SIZE":"LARGE","ECCENTRICITY":"0.00019060","OBJECT_TYPE":"PAYLOAD","ELEMENT_SET_NO":"999","CLASSIFICATION_TYPE":"U","ARG_OF_PERICENTER":"46.0658","TIME_SYSTEM":"UTC","COUNTRY_CODE":"US","NORAD_CAT_ID":"50160","EPOCH":"2022-03-11T22:00:00.999936","EPHEMERIS_TYPE":"0","DECAY_DATE":null,"MEAN_MOTION_DOT":"-0.00028717","LAUNCH_DATE":"2021-12-18","SEMIMAJOR_AXIS":"6917.769","PERIAPSIS":"538.315","MEAN_MOTION":"15.08876535","TLE_LINE1":"1 50160U 21125E   22070.91667824 -.00028717  00000-0 -17916-2 0  9990","GP_ID":"198521210","CENTER_NAME":"EARTH","BSTAR":"-0.00179160000000","TLE_LINE2":"2 50160  53.2187 327.8117 0001906  46.0658  62.6860 15.08876535  3609","PERIOD":"95.435","APOAPSIS":"540.952","OBJECT_ID":"2021-125E","FILE":"3355378","OBJECT_NAME":"STARLINK-3288","MEAN_ANOMALY":"62.6860","INCLINATION":"53.2187","REF_FRAME":"TEME","RA_OF_ASC_NODE":"327.8117","SITE":"AFWTR"},{"SITE":"AFWTR","REF_FRAME":"TEME","RA_OF_ASC_NODE":"327.8129","INCLINATION":"53.2184","MEAN_ANOMALY":"41.3337","FILE":"3355340","OBJECT_NAME":"STARLINK-3304","OBJECT_ID":"2021-125F","APOAPSIS":"541.034","TLE_LINE2":"2 50161  53.2184 327.8129 0001943  47.4145  41.3337 15.08858122 15751","PERIOD":"95.436","BSTAR":"-0.00161250000000","CENTER_NAME":"EARTH","GP_ID":"198496583","TLE_LINE1":"1 50161U 21125F   22070.91667824 -.00025873  00000-0 -16125-2 0  9992","MEAN_MOTION":"15.08858122","SEMIMAJOR_AXIS":"6917.825","PERIAPSIS":"538.346","LAUNCH_DATE":"2021-12-18","MEAN_MOTION_DOT":"-0.00025873","DECAY_DATE":null,"EPHEMERIS_TYPE":"0","EPOCH":"2022-03-11T22:00:00.999936","NORAD_CAT_ID":"50161","COUNTRY_CODE":"US","TIME_SYSTEM":"UTC","ARG_OF_PERICENTER":"47.4145","CLASSIFICATION_TYPE":"U","ELEMENT_SET_NO":"999","OBJECT_TYPE":"PAYLOAD","ECCENTRICITY":"0.00019430","MEAN_ELEMENT_THEORY":"SGP4","RCS_SIZE":"LARGE","REV_AT_EPOCH":"1575","MEAN_MOTION_DDOT":"0.0000000000000"},{"CLASSIFICATION_TYPE":"U","ELEMENT_SET_NO":"999","OBJECT_TYPE":"PAYLOAD","ECCENTRICITY":"0.00047860","RCS_SIZE":"LARGE","MEAN_ELEMENT_THEORY":"SGP4","REV_AT_EPOCH":"1599","MEAN_MOTION_DDOT":"0.0000000000000","DECAY_DATE":null,"EPHEMERIS_TYPE":"0","EPOCH":"2022-03-11T22:00:00.999936","NORAD_CAT_ID":"50162","ARG_OF_PERICENTER":"134.7919","TIME_SYSTEM":"UTC","COUNTRY_CODE":"US","MEAN_MOTION":"15.84853401","TLE_LINE1":"1 50162U 21125G   22070.91667824  .00094682  00000-0  39637-3 0  9999","SEMIMAJOR_AXIS":"6694.875","PERIAPSIS":"313.535","MEAN_MOTION_DOT":"0.00094682","LAUNCH_DATE":"2021-12-18","SITE":"AFWTR","INCLINATION":"53.2166","REF_FRAME":"TEME","RA_OF_ASC_NODE":"310.0774","OBJECT_NAME":"STARLINK-3303","FILE":"3355340","MEAN_ANOMALY":"235.9631","OBJECT_ID":"2021-125G","APOAPSIS":"319.944","GP_ID":"198496591","CENTER_NAME":"EARTH","TLE_LINE2":"2 50162  53.2166 310.0774 0004786 134.7919 235.9631 15.84853401 15992","PERIOD":"90.860","BSTAR":"0.00039637000000"},{"OBJECT_ID":"2021-125H","OBJECT_NAME":"STARLINK-3306","FILE":"3355332","MEAN_ANOMALY":"190.1456","CENTER_NAME":"EARTH","GP_ID":"198496459","TLE_LINE2":"2 50163  53.2174 316.8702 0001890  37.7458 190.1456 15.48677982 15906","PERIOD":"92.983","BSTAR":"-0.00570030000000","APOAPSIS":"421.879","SITE":"AFWTR","INCLINATION":"53.2174","RA_OF_ASC_NODE":"316.8702","REF_FRAME":"TEME","PERIAPSIS":"419.309","SEMIMAJOR_AXIS":"6798.729","MEAN_MOTION_DOT":"-0.00298963","LAUNCH_DATE":"2021-12-18","MEAN_MOTION":"15.48677982","TLE_LINE1":"1 50163U 21125H   22070.91667824 -.00298963  00000-0 -57003-2 0  9996","ARG_OF_PERICENTER":"37.7458","TIME_SYSTEM":"UTC","COUNTRY_CODE":"US","NORAD_CAT_ID":"50163","DECAY_DATE":null,"EPOCH":"2022-03-11T22:00:00.999936","EPHEMERIS_TYPE":"0","RCS_SIZE":"LARGE","MEAN_ELEMENT_THEORY":"SGP4","MEAN_MOTION_DDOT":"0.0000000000000","REV_AT_EPOCH":"1590","ELEMENT_SET_NO":"999","CLASSIFICATION_TYPE":"U","ECCENTRICITY":"0.00018900","OBJECT_TYPE":"PAYLOAD"},{"COUNTRY_CODE":"US","ARG_OF_PERICENTER":"10.6354","TIME_SYSTEM":"UTC","NORAD_CAT_ID":"50164","DECAY_DATE":null,"EPOCH":"2022-03-11T22:00:00.999936","EPHEMERIS_TYPE":"0","MEAN_ELEMENT_THEORY":"SGP4","RCS_SIZE":"LARGE","MEAN_MOTION_DDOT":"0.0000000000000","REV_AT_EPOCH":"1595","ELEMENT_SET_NO":"999","CLASSIFICATION_TYPE":"U","ECCENTRICITY":"0.00032490","OBJECT_TYPE":"PAYLOAD","OBJECT_ID":"2021-125J","MEAN_ANOMALY":"35.3850","OBJECT_NAME":"STARLINK-3307","FILE":"3355333","TLE_LINE2":"2 50164  53.2159 312.9400 0003249  10.6354  35.3850 15.73247395 15959","PERIOD":"91.530","BSTAR":"-0.00032977000000","CENTER_NAME":"EARTH","GP_ID":"198496976","APOAPSIS":"351.811","SITE":"AFWTR","RA_OF_ASC_NODE":"312.9400","REF_FRAME":"TEME","INCLINATION":"53.2159","SEMIMAJOR_AXIS":"6727.760","PERIAPSIS":"347.439","LAUNCH_DATE":"2021-12-18","MEAN_MOTION_DOT":"-0.00046756","MEAN_MOTION":"15.73247395","TLE_LINE1":"1 50164U 21125J   22070.91667824 -.00046756  00000-0 -32977-3 0  9992"},{"COUNTRY_CODE":"US","ARG_OF_PERICENTER":"50.7372","TIME_SYSTEM":"UTC","NORAD_CAT_ID":"50165","DECAY_DATE":null,"EPOCH":"2022-03-11T22:00:00.999936","EPHEMERIS_TYPE":"0","RCS_SIZE":"LARGE","MEAN_ELEMENT_THEORY":"SGP4","MEAN_MOTION_DDOT":"0.0000000000000","REV_AT_EPOCH":"360","ELEMENT_SET_NO":"999","CLASSIFICATION_TYPE":"U","ECCENTRICITY":"0.00020650","OBJECT_TYPE":"PAYLOAD","OBJECT_ID":"2021-125K","MEAN_ANOMALY":"118.0183","FILE":"3355378","OBJECT_NAME":"STARLINK-3298","PERIOD":"95.436","TLE_LINE2":"2 50165  53.2201 327.7975 0002065  50.7372 118.0183 15.08857381  3606","BSTAR":"-0.00098422000000","GP_ID":"198521461","CENTER_NAME":"EARTH","APOAPSIS":"541.121","SITE":"AFWTR","RA_OF_ASC_NODE":"327.7975","REF_FRAME":"TEME","INCLINATION":"53.2201","PERIAPSIS":"538.264","SEMIMAJOR_AXIS":"6917.827","LAUNCH_DATE":"2021-12-18","MEAN_MOTION_DOT":"-0.00015926","MEAN_MOTION":"15.08857381","TLE_LINE1":"1 50165U 21125K   22070.91667824 -.00015926  00000-0 -98422-3 0  9995"}];
